{
    "CCSDS_OMM_VERS": "3.0",
    "COMMENT": "GENERATED VIA SPACE-TRACK.ORG API",
    "CREATION_DATE": "2025-05-22T17:14:14",
    "ORIGINATOR": "18 SPCS",
    "OBJECT_NAME": "QZS-6",
    "OBJECT_ID": "2025-023A",
    "CENTER_NAME": "EARTH",
    "REF_FRAME": "TEME",
    "TIME_SYSTEM": "UTC",
    "MEAN_ELEMENT_THEORY": "SGP4",
    "EPOCH": "2025-05-22T14:59:32.839296",
    "MEAN_MOTION": "1.00272238",
    "ECCENTRICITY": "0.00020220",
    "INCLINATION": "0.0634",
    "RA_OF_ASC_NODE": "45.1632",
    "ARG_OF_PERICENTER": "21.8431",
    "MEAN_ANOMALY": "128.9269",
    "EPHEMERIS_TYPE": "0",
    "CLASSIFICATION_TYPE": "U",
    "NORAD_CAT_ID": "62876",
    "ELEMENT_SET_NO": "999",
    "REV_AT_EPOCH": "104",
    "BSTAR": "0.00000000000000",
    "MEAN_MOTION_DOT": "-0.00000225",
    "MEAN_MOTION_DDOT": "0.0000000000000",
    "SEMIMAJOR_AXIS": "42164.605",
    "PERIOD": "1436.090",
    "APOAPSIS": "35794.996",
    "PERIAPSIS": "35777.944",
    "OBJECT_TYPE": "PAYLOAD",
    "RCS_SIZE": null,
    "COUNTRY_CODE": "JPN",
    "LAUNCH_DATE": "2025-02-02",
    "SITE": "TNSTA",
    "DECAY_DATE": null,
    "FILE": "4736220",
    "GP_ID": "288157800",
    "TLE_LINE0": "0 QZS-6",
    "TLE_LINE1": "1 62876U 25023A   25142.62468564 -.00000225  00000-0  00000-0 0  9996",
    "TLE_LINE2": "2 62876   0.0634  45.1632 0002022  21.8431 128.9269  1.00272238  1047"
}